start=new Date('2023-02-03T00:00:00.000Z').valueOf();
sats=[{"COUNTRY_CODE":"US","REF_FRAME":"TEME","MEAN_MOTION_DDOT":"0.0000000000000","SITE":"AFETR","FILE":"3768366","INCLINATION":"53.0529","CENTER_NAME":"EARTH","TIME_SYSTEM":"UTC","RCS_SIZE":"LARGE","PERIAPSIS":"546.406","REV_AT_EPOCH":"13407","ECCENTRICITY":"0.00011430","MEAN_ELEMENT_THEORY":"SGP4","OBJECT_TYPE":"PAYLOAD","MEAN_MOTION_DOT":"0.00004635","TLE_LINE1":"1 46344U 20062V   23033.37868830  .00004635  00000-0  32981-3 0  9999","MEAN_ANOMALY":"259.0816","DECAY_DATE":null,"OBJECT_NAME":"STARLINK-1765","CLASSIFICATION_TYPE":"U","LAUNCH_DATE":"2020-09-03","RA_OF_ASC_NODE":"35.2748","SEMIMAJOR_AXIS":"6925.332","TLE_LINE2":"2 46344  53.0529  35.2748 0001143 101.0302 259.0816 15.06405259134075","EPOCH":"2023-02-02T09:05:18.669120","ARG_OF_PERICENTER":"101.0302","OBJECT_ID":"2020-062V","MEAN_MOTION":"15.06405259","APOAPSIS":"547.989","EPHEMERIS_TYPE":"0","NORAD_CAT_ID":"46344","BSTAR":"0.00032981000000","GP_ID":"224237743","PERIOD":"95.592","ELEMENT_SET_NO":"999"},{"BSTAR":"0.00000878100000","GP_ID":"224249222","APOAPSIS":"548.132","MEAN_MOTION":"15.06396835","EPHEMERIS_TYPE":"0","NORAD_CAT_ID":"46345","ELEMENT_SET_NO":"999","PERIOD":"95.592","RA_OF_ASC_NODE":"55.2650","TLE_LINE2":"2 46345  53.0552  55.2650 0001312  83.8390 276.2749 15.06396835133971","SEMIMAJOR_AXIS":"6925.358","LAUNCH_DATE":"2020-09-03","OBJECT_ID":"2020-062W","EPOCH":"2023-02-02T09:06:36.496512","ARG_OF_PERICENTER":"83.8390","MEAN_ELEMENT_THEORY":"SGP4","PERIAPSIS":"546.315","ECCENTRICITY":"0.00013120","REV_AT_EPOCH":"13397","TLE_LINE1":"1 46345U 20062W   23033.37958908 -.00000151  00000-0  87810-5 0  9999","DECAY_DATE":null,"MEAN_ANOMALY":"276.2749","OBJECT_NAME":"STARLINK-1767","CLASSIFICATION_TYPE":"U","OBJECT_TYPE":"PAYLOAD","MEAN_MOTION_DOT":"-0.00000151","SITE":"AFETR","FILE":"3768572","COUNTRY_CODE":"US","REF_FRAME":"TEME","MEAN_MOTION_DDOT":"0.0000000000000","CENTER_NAME":"EARTH","TIME_SYSTEM":"UTC","RCS_SIZE":"LARGE","INCLINATION":"53.0552"},{"SITE":"AFETR","FILE":"3768366","COUNTRY_CODE":"US","REF_FRAME":"TEME","MEAN_MOTION_DDOT":"0.0000000000000","CENTER_NAME":"EARTH","TIME_SYSTEM":"UTC","RCS_SIZE":"LARGE","INCLINATION":"53.0562","MEAN_ELEMENT_THEORY":"SGP4","PERIAPSIS":"444.786","REV_AT_EPOCH":"13657","ECCENTRICITY":"0.00065230","MEAN_ANOMALY":"210.1160","TLE_LINE1":"1 46346U 20062X   23032.79107926  .00027813  00000-0  71806-3 0  9990","DECAY_DATE":null,"OBJECT_NAME":"STARLINK-1546","CLASSIFICATION_TYPE":"U","OBJECT_TYPE":"PAYLOAD","MEAN_MOTION_DOT":"0.00027813","RA_OF_ASC_NODE":"215.2807","TLE_LINE2":"2 46346  53.0562 215.2807 0006523 150.0217 210.1160 15.38941753136572","SEMIMAJOR_AXIS":"6827.374","LAUNCH_DATE":"2020-09-03","OBJECT_ID":"2020-062X","EPOCH":"2023-02-01T18:59:09.248064","ARG_OF_PERICENTER":"150.0217","BSTAR":"0.00071806000000","GP_ID":"224238730","APOAPSIS":"453.693","EPHEMERIS_TYPE":"0","MEAN_MOTION":"15.38941753","NORAD_CAT_ID":"46346","ELEMENT_SET_NO":"999","PERIOD":"93.571"},{"OBJECT_ID":"2020-062Y","ARG_OF_PERICENTER":"97.8026","EPOCH":"2023-02-02T08:07:35.382144","SEMIMAJOR_AXIS":"6925.347","TLE_LINE2":"2 46347  53.0528  10.4562 0001559  97.8026 262.3140 15.06400638134402","RA_OF_ASC_NODE":"10.4562","LAUNCH_DATE":"2020-09-03","PERIOD":"95.592","ELEMENT_SET_NO":"999","GP_ID":"224238483","BSTAR":"0.00008281600000","NORAD_CAT_ID":"46347","APOAPSIS":"548.291","EPHEMERIS_TYPE":"0","MEAN_MOTION":"15.06400638","RCS_SIZE":"LARGE","CENTER_NAME":"EARTH","TIME_SYSTEM":"UTC","INCLINATION":"53.0528","FILE":"3768366","SITE":"AFETR","COUNTRY_CODE":"US","MEAN_MOTION_DDOT":"0.0000000000000","REF_FRAME":"TEME","CLASSIFICATION_TYPE":"U","TLE_LINE1":"1 46347U 20062Y   23033.33860396  .00000952  00000-0  82816-4 0  9998","MEAN_ANOMALY":"262.3140","DECAY_DATE":null,"OBJECT_NAME":"STARLINK-1547","OBJECT_TYPE":"PAYLOAD","MEAN_MOTION_DOT":"0.00000952","MEAN_ELEMENT_THEORY":"SGP4","PERIAPSIS":"546.132","REV_AT_EPOCH":"13440","ECCENTRICITY":"0.00015590"},{"BSTAR":"-0.00008389100000","GP_ID":"224261208","MEAN_MOTION":"15.06405503","APOAPSIS":"548.320","EPHEMERIS_TYPE":"0","NORAD_CAT_ID":"46348","ELEMENT_SET_NO":"999","PERIOD":"95.592","RA_OF_ASC_NODE":"32.5765","SEMIMAJOR_AXIS":"6925.332","TLE_LINE2":"2 46348  53.0552  32.5765 0001622  94.0273 266.0901 15.06405503134349","LAUNCH_DATE":"2020-09-03","OBJECT_ID":"2020-062Z","EPOCH":"2023-02-02T23:30:28.298016","ARG_OF_PERICENTER":"94.0273","MEAN_ELEMENT_THEORY":"SGP4","PERIAPSIS":"546.073","ECCENTRICITY":"0.00016220","REV_AT_EPOCH":"13434","DECAY_DATE":null,"TLE_LINE1":"1 46348U 20062Z   23033.97949419 -.00001531  00000-0 -83891-4 0  9993","MEAN_ANOMALY":"266.0901","OBJECT_NAME":"STARLINK-1553","CLASSIFICATION_TYPE":"U","OBJECT_TYPE":"PAYLOAD","MEAN_MOTION_DOT":"-0.00001531","SITE":"AFETR","FILE":"3769113","COUNTRY_CODE":"US","MEAN_MOTION_DDOT":"0.0000000000000","REF_FRAME":"TEME","CENTER_NAME":"EARTH","TIME_SYSTEM":"UTC","RCS_SIZE":"LARGE","INCLINATION":"53.0552"},{"OBJECT_ID":"2020-062AA","EPOCH":"2023-02-02T07:30:25.987392","ARG_OF_PERICENTER":"107.6442","RA_OF_ASC_NODE":"10.5690","TLE_LINE2":"2 46349  53.0553  10.5690 0001432 107.6442 252.4703 15.06403575134416","SEMIMAJOR_AXIS":"6925.338","LAUNCH_DATE":"2020-09-03","ELEMENT_SET_NO":"999","PERIOD":"95.592","BSTAR":"0.00014616000000","GP_ID":"224237990","MEAN_MOTION":"15.06403575","APOAPSIS":"548.194","EPHEMERIS_TYPE":"0","NORAD_CAT_ID":"46349","TIME_SYSTEM":"UTC","CENTER_NAME":"EARTH","RCS_SIZE":"LARGE","INCLINATION":"53.0553","SITE":"AFETR","FILE":"3768366","MEAN_MOTION_DDOT":"0.0000000000000","REF_FRAME":"TEME","COUNTRY_CODE":"US","OBJECT_NAME":"STARLINK-1575","TLE_LINE1":"1 46349U 20062AA  23033.31280078  .00001896  00000-0  14616-3 0  9991","MEAN_ANOMALY":"252.4703","DECAY_DATE":null,"CLASSIFICATION_TYPE":"U","MEAN_MOTION_DOT":"0.00001896","OBJECT_TYPE":"PAYLOAD","MEAN_ELEMENT_THEORY":"SGP4","ECCENTRICITY":"0.00014320","REV_AT_EPOCH":"13441","PERIAPSIS":"546.211"},{"REV_AT_EPOCH":"13398","ECCENTRICITY":"0.00014420","PERIAPSIS":"546.273","MEAN_ELEMENT_THEORY":"SGP4","MEAN_MOTION_DOT":"-0.00001777","OBJECT_TYPE":"PAYLOAD","OBJECT_NAME":"STARLINK-1617","TLE_LINE1":"1 46350U 20062AB  23033.41003824 -.00001777  00000-0 -10048-3 0  9991","DECAY_DATE":null,"MEAN_ANOMALY":"262.0798","CLASSIFICATION_TYPE":"U","REF_FRAME":"TEME","MEAN_MOTION_DDOT":"0.0000000000000","COUNTRY_CODE":"US","SITE":"AFETR","FILE":"3768429","INCLINATION":"53.0546","TIME_SYSTEM":"UTC","CENTER_NAME":"EARTH","RCS_SIZE":"LARGE","APOAPSIS":"548.270","MEAN_MOTION":"15.06381135","EPHEMERIS_TYPE":"0","NORAD_CAT_ID":"46350","BSTAR":"-0.00010048000000","GP_ID":"224246428","PERIOD":"95.593","ELEMENT_SET_NO":"999","LAUNCH_DATE":"2020-09-03","RA_OF_ASC_NODE":"55.1282","TLE_LINE2":"2 46350  53.0546  55.1282 0001442  98.0354 262.0798 15.06381135133987","SEMIMAJOR_AXIS":"6925.406","EPOCH":"2023-02-02T09:50:27.303936","ARG_OF_PERICENTER":"98.0354","OBJECT_ID":"2020-062AB"},{"GP_ID":"224238983","BSTAR":"0.00021846000000","NORAD_CAT_ID":"46351","EPHEMERIS_TYPE":"0","APOAPSIS":"548.109","MEAN_MOTION":"15.06402810","ELEMENT_SET_NO":"999","PERIOD":"95.592","TLE_LINE2":"2 46351  53.0548  35.0916 0001305  89.7451 270.3688 15.06402810134091","SEMIMAJOR_AXIS":"6925.340","RA_OF_ASC_NODE":"35.0916","LAUNCH_DATE":"2020-09-03","OBJECT_ID":"2020-062AC","ARG_OF_PERICENTER":"89.7451","EPOCH":"2023-02-02T09:57:01.656864","MEAN_ELEMENT_THEORY":"SGP4","REV_AT_EPOCH":"13409","ECCENTRICITY":"0.00013050","PERIAPSIS":"546.301","CLASSIFICATION_TYPE":"U","OBJECT_NAME":"STARLINK-1646","TLE_LINE1":"1 46351U 20062AC  23033.41460251  .00002974  00000-0  21846-3 0  9999","DECAY_DATE":null,"MEAN_ANOMALY":"270.3688","MEAN_MOTION_DOT":"0.00002974","OBJECT_TYPE":"PAYLOAD","FILE":"3768366","SITE":"AFETR","MEAN_MOTION_DDOT":"0.0000000000000","REF_FRAME":"TEME","COUNTRY_CODE":"US","RCS_SIZE":"LARGE","TIME_SYSTEM":"UTC","CENTER_NAME":"EARTH","INCLINATION":"53.0548"},{"FILE":"3768366","SITE":"AFETR","REF_FRAME":"TEME","MEAN_MOTION_DDOT":"0.0000000000000","COUNTRY_CODE":"US","RCS_SIZE":"LARGE","CENTER_NAME":"EARTH","TIME_SYSTEM":"UTC","INCLINATION":"53.0543","MEAN_ELEMENT_THEORY":"SGP4","REV_AT_EPOCH":"13408","ECCENTRICITY":"0.00013960","PERIAPSIS":"546.247","CLASSIFICATION_TYPE":"U","OBJECT_NAME":"STARLINK-1653","TLE_LINE1":"1 46352U 20062AD  23033.39711939  .00001012  00000-0  86829-4 0  9994","MEAN_ANOMALY":"263.6799","DECAY_DATE":null,"MEAN_MOTION_DOT":"0.00001012","OBJECT_TYPE":"PAYLOAD","TLE_LINE2":"2 46352  53.0543  35.1927 0001396  96.4348 263.6799 15.06399956134083","SEMIMAJOR_AXIS":"6925.349","RA_OF_ASC_NODE":"35.1927","LAUNCH_DATE":"2020-09-03","OBJECT_ID":"2020-062AD","ARG_OF_PERICENTER":"96.4348","EPOCH":"2023-02-02T09:31:51.115296","GP_ID":"224237744","BSTAR":"0.00008682900000","NORAD_CAT_ID":"46352","APOAPSIS":"548.180","MEAN_MOTION":"15.06399956","EPHEMERIS_TYPE":"0","PERIOD":"95.592","ELEMENT_SET_NO":"999"},{"OBJECT_TYPE":"PAYLOAD","MEAN_MOTION_DOT":"0.00000662","DECAY_DATE":null,"TLE_LINE1":"1 46353U 20062AE  23033.52796523  .00000662  00000-0  63299-4 0  9998","MEAN_ANOMALY":"278.0222","OBJECT_NAME":"STARLINK-1656","CLASSIFICATION_TYPE":"U","PERIAPSIS":"546.220","ECCENTRICITY":"0.00014220","REV_AT_EPOCH":"13381","MEAN_ELEMENT_THEORY":"SGP4","INCLINATION":"53.0535","CENTER_NAME":"EARTH","TIME_SYSTEM":"UTC","RCS_SIZE":"LARGE","COUNTRY_CODE":"US","MEAN_MOTION_DDOT":"0.0000000000000","REF_FRAME":"TEME","SITE":"AFETR","FILE":"3768366","ELEMENT_SET_NO":"999","PERIOD":"95.592","APOAPSIS":"548.190","EPHEMERIS_TYPE":"0","MEAN_MOTION":"15.06402750","NORAD_CAT_ID":"46353","BSTAR":"0.00006329900000","GP_ID":"224237491","EPOCH":"2023-02-02T12:40:16.195872","ARG_OF_PERICENTER":"82.0928","OBJECT_ID":"2020-062AE","LAUNCH_DATE":"2020-09-03","RA_OF_ASC_NODE":"54.6087","TLE_LINE2":"2 46353  53.0535  54.6087 0001422  82.0928 278.0222 15.06402750133811","SEMIMAJOR_AXIS":"6925.340"}];
